{
  "type": "FeatureCollection",
  "features": [
    {
      "type": "Feature",
      "id": "road-100-feet",
      "geometry": { "type": "LineString", "coordinates": [[80.214, 12.969], [80.217, 12.978], [80.22, 12.987]] },
      "properties": { "name": "100 Feet Road", "p50_depth_m": 0.04, "p90_depth_m": 0.11, "status": "OPEN", "route_cost_multiplier": 1.0, "is_simulated": true }
    },
    {
      "type": "Feature",
      "id": "road-velachery-main",
      "geometry": { "type": "LineString", "coordinates": [[80.217, 12.976], [80.222, 12.982], [80.226, 12.986]] },
      "properties": { "name": "Velachery Main Road", "p50_depth_m": 0.42, "p90_depth_m": 0.68, "status": "EXCLUDED", "reason": "Community-corroborated flooding; pending official closure decision", "is_simulated": true }
    }
  ]
}
